[
  {
    "name": "KUIPER-00057",
    "noradId": "64517",
    "line1": "1 64517U 25134T   26184.00768287  .00005129  00000+0  70124-3 0  9990",
    "line2": "2 64517  51.8994  80.6379 0000715 102.1975 257.9068 14.79936991 57188"
  },
  {
    "name": "KUIPER-00058",
    "noradId": "64518",
    "line1": "1 64518U 25134U   26185.87016494  .00004082  00000+0  56408-3 0  9999",
    "line2": "2 64518  51.9017  67.3717 0000778  94.4652 265.6400 14.79934298 57531"
  },
  {
    "name": "KUIPER-00059",
    "noradId": "64519",
    "line1": "1 64519U 25134V   26185.94310064  .00002135  00000+0  30903-3 0  9997",
    "line2": "2 64519  51.8987  62.0900 0000861 101.3169 258.7890 14.79930684 57617"
  },
  {
    "name": "KUIPER-00060",
    "noradId": "64520",
    "line1": "1 64520U 25134W   26186.04440446  .00001134  00000+0  17780-3 0  9995",
    "line2": "2 64520  51.9012  61.7051 0001061  89.2938 270.8146 14.79925130 57612"
  },
  {
    "name": "KUIPER-00061",
    "noradId": "64521",
    "line1": "1 64521U 25134X   26185.93501686 -.00000786  00000+0 -74061-4 0  9997",
    "line2": "2 64521  51.9020  69.6409 0000655 101.3148 258.7888 14.79928398 57496"
  },
  {
    "name": "KUIPER-00062",
    "noradId": "64522",
    "line1": "1 64522U 25134Y   26185.93231606  .00002944  00000+0  41493-3 0  9998",
    "line2": "2 64522  51.8961  72.1318 0000722 110.1607 249.9433 14.79936178 57472"
  },
  {
    "name": "KUIPER-00063",
    "noradId": "64523",
    "line1": "1 64523U 25134Z   26185.85670347  .00001713  00000+0  25363-3 0  9990",
    "line2": "2 64523  51.9010  80.0148 0000990 107.1657 252.9414 14.79930011 57356"
  },
  {
    "name": "KUIPER-00064",
    "noradId": "64524",
    "line1": "1 64524U 25134AA  26186.06198194  .00002721  00000+0  38583-3 0  9998",
    "line2": "2 64524  51.9027  76.5335 0000943  83.1251 276.9818 14.79934439 57424"
  },
  {
    "name": "KUIPER-00065",
    "noradId": "64525",
    "line1": "1 64525U 25134AB  26185.92154628  .00001844  00000+0  27089-3 0  9991",
    "line2": "2 64525  51.9025  82.3207 0000893 120.9564 239.1487 14.79931490 57312"
  },
  {
    "name": "KUIPER-00066",
    "noradId": "64526",
    "line1": "1 64526U 25134AC  26185.95516770  .00004166  00000+0  57507-3 0  9993",
    "line2": "2 64526  51.9016  19.4537 0000648 105.2952 254.8082 14.79934712 58210"
  },
  {
    "name": "KUIPER-00069",
    "noradId": "64816",
    "line1": "1 64816U 25151A   26186.01345564  .00000924  00000+0  15027-3 0  9992",
    "line2": "2 64816  51.9000 121.8370 0000877  97.6228 262.4834 14.79928719 54139"
  },
  {
    "name": "KUIPER-00070",
    "noradId": "64817",
    "line1": "1 64817U 25151B   26186.08777168  .00003028  00000+0  42599-3 0  9991",
    "line2": "2 64817  51.8973 146.4202 0000727  82.4079 277.6966 14.79930769 53800"
  },
  {
    "name": "KUIPER-00071",
    "noradId": "64818",
    "line1": "1 64818U 25151C   26186.29299467  .00005275  00000+0  72076-3 0  9995",
    "line2": "2 64818  51.8999 143.0501 0000771  92.7025 267.4025 14.79910600 52688"
  },
  {
    "name": "KUIPER-00072",
    "noradId": "64819",
    "line1": "1 64819U 25151D   26186.01069730  .00006070  00000+0  82490-3 0  9999",
    "line2": "2 64819  51.8965 124.2462 0000759  62.8229 297.2811 14.79914832 52921"
  },
  {
    "name": "KUIPER-00073",
    "noradId": "64820",
    "line1": "1 64820U 25151E   26186.25927849  .00003035  00000+0  42717-3 0  9997",
    "line2": "2 64820  51.9000 143.1848 0001108  84.8993 275.2095 14.79916212 53861"
  },
  {
    "name": "KUIPER-00074",
    "noradId": "64821",
    "line1": "1 64821U 25151F   26186.58336806  .00212620  29031-4  50763-3 0  9993",
    "line2": "2 64821  51.8787  48.6537 0001949 169.9739  38.7583 15.96182867  5977"
  },
  {
    "name": "KUIPER-00075",
    "noradId": "64822",
    "line1": "1 64822U 25151G   26186.49463417  .00070986  00000+0  14649-2 0  9992",
    "line2": "2 64822  51.8683   6.8841 0003272 340.6714  19.4151 15.45213183 54598"
  },
  {
    "name": "KUIPER-00076",
    "noradId": "64823",
    "line1": "1 64823U 25151H   26186.27008249  .00006269  00000+0  85038-3 0  9991",
    "line2": "2 64823  51.9000 133.1558 0000776  80.0911 280.0139 14.79944282 52825"
  },
  {
    "name": "KUIPER-00077",
    "noradId": "64824",
    "line1": "1 64824U 25151J   26186.26469299  .00005686  00000+0  77416-3 0  9990",
    "line2": "2 64824  51.8999 138.1975 0000743  88.3492 271.7555 14.79936748 52758"
  },
  {
    "name": "KUIPER-00078",
    "noradId": "64825",
    "line1": "1 64825U 25151K   26186.30114570  .00005593  00000+0  76195-3 0  9995",
    "line2": "2 64825  51.8995 135.5148 0000770  90.3493 269.7558 14.79935867 52797"
  },
  {
    "name": "KUIPER-00079",
    "noradId": "64826",
    "line1": "1 64826U 25151L   26186.12692850  .00005345  00000+0  72952-3 0  9990",
    "line2": "2 64826  51.8983 141.2478 0000685  84.9797 275.1244 14.79933523 53898"
  },
  {
    "name": "KUIPER-00080",
    "noradId": "64827",
    "line1": "1 64827U 25151M   26186.29575323  .00003458  00000+0  48239-3 0  9998",
    "line2": "2 64827  51.8985 140.5100 0000785 100.9074 259.1976 14.79927518 52725"
  },
  {
    "name": "KUIPER-00082",
    "noradId": "64828",
    "line1": "1 64828U 25151N   26186.20794371  .00006294  00000+0  85369-3 0  9992",
    "line2": "2 64828  51.9006 128.4496 0000794  75.7984 284.3067 14.79943654 52880"
  },
  {
    "name": "KUIPER-00083",
    "noradId": "64829",
    "line1": "1 64829U 25151P   26186.26739203  .00001251  00000+0  19310-3 0  9993",
    "line2": "2 64829  51.8995 135.6719 0000782  94.5403 265.5649 14.79931052 53974"
  },
  {
    "name": "KUIPER-00084",
    "noradId": "64830",
    "line1": "1 64830U 25151Q   26186.25660043  .00001715  00000+0  25388-3 0  9996",
    "line2": "2 64830  51.8989 145.7019 0000660  77.8710 282.2326 14.79931295 52644"
  },
  {
    "name": "KUIPER-00085",
    "noradId": "64831",
    "line1": "1 64831U 25151R   26186.24171787  .00006138  00000+0  83322-3 0  9994",
    "line2": "2 64831  51.9024 128.3454 0000730  96.6949 263.4096 14.79944572 52880"
  },
  {
    "name": "KUIPER-00086",
    "noradId": "64832",
    "line1": "1 64832U 25151S   26186.23093064  .00005173  00000+0  70703-3 0  9992",
    "line2": "2 64832  51.9002 138.3416 0000724  91.2292 268.8753 14.79931370 52747"
  },
  {
    "name": "KUIPER-00087",
    "noradId": "64833",
    "line1": "1 64833U 25151T   26186.18226970  .00002184  00000+0  31535-3 0  9990",
    "line2": "2 64833  51.9003 121.0214 0000701 103.0937 257.0103 14.79940306 52970"
  },
  {
    "name": "KUIPER-00089",
    "noradId": "64834",
    "line1": "1 64834U 25151U   26186.24441296  .00001747  00000+0  25807-3 0  9997",
    "line2": "2 64834  51.8977 125.7673 0000765 100.8225 259.2824 14.79930856 52923"
  },
  {
    "name": "KUIPER-00090",
    "noradId": "64835",
    "line1": "1 64835U 25151V   26186.18497213  .00000987  00000+0  15843-3 0  9995",
    "line2": "2 64835  51.8967 118.5368 0000907  95.4759 264.6307 14.79931141 53018"
  },
  {
    "name": "KUIPER-00091",
    "noradId": "64836",
    "line1": "1 64836U 25151W   26186.04450691  .00006739  00000+0  91206-3 0  9998",
    "line2": "2 64836  51.9003 124.1676 0000788  83.5206 276.5846 14.79936915 52921"
  },
  {
    "name": "KUIPER-00092",
    "noradId": "64837",
    "line1": "1 64837U 25151X   26186.23901842  .00006376  00000+0  86438-3 0  9997",
    "line2": "2 64837  51.8995 130.7991 0000704  90.3761 269.7282 14.79941940 54063"
  },
  {
    "name": "KUIPER-00093",
    "noradId": "64838",
    "line1": "1 64838U 25151Y   26186.23632003  .00001777  00000+0  26209-3 0  9998",
    "line2": "2 64838  51.8988 133.2864 0000781  82.3689 277.7362 14.79931111 52816"
  },
  {
    "name": "KUIPER-00094",
    "noradId": "64839",
    "line1": "1 64839U 25151Z   26186.14967475  .00005391  00000+0  73425-3 0  9991",
    "line2": "2 64839  51.9030  88.7544 0000597 119.9333 240.1689 14.80012342 53436"
  },
  {
    "name": "KUIPER-00081",
    "noradId": "65132",
    "line1": "1 65132U 25171A   26186.49400752  .00002889  00000+0  40781-3 0  9996",
    "line2": "2 65132  51.9006 347.1431 0000697 111.3616 248.7421 14.79934534 50488"
  },
  {
    "name": "KUIPER-00088",
    "noradId": "65133",
    "line1": "1 65133U 25171B   26185.93489325  .00004904  00000+0  67174-3 0  9993",
    "line2": "2 65133  51.8996   7.1178 0000642 100.3484 259.7551 14.79935056 50158"
  },
  {
    "name": "KUIPER-00095",
    "noradId": "65134",
    "line1": "1 65134U 25171C   26186.49671001  .00003476  00000+0  48467-3 0  9997",
    "line2": "2 65134  51.8989 344.6832 0000628  93.7471 266.3563 14.79937940 50513"
  },
  {
    "name": "KUIPER-00096",
    "noradId": "65135",
    "line1": "1 65135U 25171D   26186.51698816  .00002338  00000+0  33563-3 0  9991",
    "line2": "2 65135  51.8979 357.0396 0001028 116.3263 243.7805 14.79932009 50342"
  },
  {
    "name": "KUIPER-00097",
    "noradId": "65136",
    "line1": "1 65136U 25171E   26186.51430847  .00005943  00000+0  80768-3 0  9994",
    "line2": "2 65136  51.9022 359.7070 0000618 103.0899 257.0133 14.79940498 50290"
  },
  {
    "name": "KUIPER-00098",
    "noradId": "65137",
    "line1": "1 65137U 25171F   26186.51159540  .00003491  00000+0  48664-3 0  9998",
    "line2": "2 65137  51.9010   2.0846 0000567 103.4202 256.6824 14.79936715 49615"
  },
  {
    "name": "KUIPER-00099",
    "noradId": "65138",
    "line1": "1 65138U 25171G   26186.48861827  .00002399  00000+0  34354-3 0  9990",
    "line2": "2 65138  51.9027 352.1898 0000736 106.6778 253.4265 14.79935717 50405"
  },
  {
    "name": "KUIPER-00100",
    "noradId": "65139",
    "line1": "1 65139U 25171H   26186.45754437  .00006406  00000+0  86834-3 0  9999",
    "line2": "2 65139  51.9019 349.7986 0000614 105.0656 255.0374 14.79938310 50434"
  },
  {
    "name": "KUIPER-00102",
    "noradId": "65140",
    "line1": "1 65140U 25171J   26186.45484102  .00002455  00000+0  35096-3 0  9994",
    "line2": "2 65140  51.8976 352.2996 0000611  77.3595 282.7436 14.79928829 50392"
  }
]